[{"OBJECT_NAME":"OBJECT AL","OBJECT_ID":"2023-085AL","EPOCH":"2026-03-09T22:26:04.970400","MEAN_MOTION":15.31857284,"ECCENTRICITY":0.000802,"INCLINATION":97.4839,"RA_OF_ASC_NODE":180.0127,"ARG_OF_PERICENTER":78.7242,"MEAN_ANOMALY":281.49,"EPHEMERIS_TYPE":0,"CLASSIFICATION_TYPE":"U","NORAD_CAT_ID":57038,"ELEMENT_SET_NO":999,"REV_AT_EPOCH":15154,"BSTAR":0.0006591637,"MEAN_MOTION_DOT":0.00020246,"MEAN_MOTION_DDOT":0},{"OBJECT_NAME":"STARLINK-34671","OBJECT_ID":"2025-161U","EPOCH":"2026-03-09T22:34:23.945088","MEAN_MOTION":15.30189709,"ECCENTRICITY":0.00010722,"INCLINATION":53.16,"RA_OF_ASC_NODE":293.3693,"ARG_OF_PERICENTER":91.3889,"MEAN_ANOMALY":268.7234,"EPHEMERIS_TYPE":0,"CLASSIFICATION_TYPE":"U","NORAD_CAT_ID":65033,"ELEMENT_SET_NO":999,"REV_AT_EPOCH":3426,"BSTAR":0.00084642197,"MEAN_MOTION_DOT":0.00024785,"MEAN_MOTION_DDOT":0}]
